NORAD_CAT_ID,OBJECT_NAME,OBJECT_TYPE,EPOCH,MEAN_MOTION,ECCENTRICITY,INCLINATION,RA_OF_ASC_NODE,ARG_OF_PERICENTER,MEAN_ANOMALY,BSTAR,MEAN_MOTION_DOT,MEAN_MOTION_DDOT,TLE_LINE0,TLE_LINE1,TLE_LINE2,SEMIMAJOR_AXIS,PERIOD,APOGEE,PERIGEE,DECAYED
55308.0,STARLINK-5292,PAYLOAD,2023-02-04 10:00:00,15.75469481,0.0003742,70.0001,24.2856,258.281,28.0126,-0.0060068,-0.00830438,0.0,0 STARLINK-5292,1 55308U 23010AR  23035.41667824 -.00830438  00000-0 -60068-2 0  9998,2 55308  70.0001  24.2856 0003742 258.2810  28.0126 15.75469481  3002,6721.433,91.401,345.813,340.782,0.0
55308.0,STARLINK-5292,PAYLOAD,2023-02-04 14:00:01,15.7518514,0.000343,69.9992,23.8121,265.2161,245.9729,-0.0062536,-0.00851564,0.0,0 STARLINK-5292,1 55308U 23010AR  23035.58334491 -.00851564  00000-0 -62536-2 0  9992,2 55308  69.9992  23.8121 0003430 265.2161 245.9729 15.75185140  1306,6722.241,91.418,346.412,341.801,0.0
55308.0,STARLINK-5292,PAYLOAD,2023-02-04 22:00:00,15.74576619,0.0003495,69.9998,22.869,265.2605,335.1985,-0.0063011,-0.00837012,0.0,0 STARLINK-5292,1 55308U 23010AR  23035.91667824 -.00837012  00000-0 -63011-2 0  9999,2 55308  69.9998  22.8690 0003495 265.2605 335.1985 15.74576619  1306,6723.973,91.453,348.188,343.488,0.0
55308.0,STARLINK-5292,PAYLOAD,2023-02-05 06:00:00,15.73972548,0.0003862,70.0001,21.9255,254.095,74.915,-0.0063955,-0.00828558,0.0,0 STARLINK-5292,1 55308U 23010AR  23036.25001157 -.00828558  00000-0 -63955-2 0  9990,2 55308  70.0001  21.9255 0003862 254.0950  74.9150 15.73972548  3133,6725.694,91.488,350.156,344.961,0.0
55308.0,STARLINK-5292,PAYLOAD,2023-02-05 14:00:01,15.73386657,0.0003728,69.9953,20.9745,267.4021,149.5387,-0.006805,-0.00856646,0.0,0 STARLINK-5292,1 55308U 23010AR  23036.58335648 -.00856646  00000-0 -68050-2 0  9991,2 55308  69.9953  20.9745 0003728 267.4021 149.5387 15.73386657  1305,6727.363,91.522,351.736,346.72,0.0
55308.0,STARLINK-5292,PAYLOAD,2023-02-05 22:00:00,15.72798099,0.000354,69.9959,20.0334,263.9041,240.0752,-0.0068936,-0.0084703,0.0,0 STARLINK-5292,1 55308U 23010AR  23036.91667824 -.00847030  00000-0 -68936-2 0  9992,2 55308  69.9959  20.0334 0003540 263.9041 240.0752 15.72798099  1300,6729.041,91.557,353.288,348.524,0.0
55308.0,STARLINK-5292,PAYLOAD,2023-02-06 06:00:00,15.72156025,0.0003528,69.996,19.0928,271.6971,318.7003,-0.0066222,-0.00796486,0.0,0 STARLINK-5292,1 55308U 23010AR  23037.25001157 -.00796486  00000-0 -66222-2 0  9995,2 55308  69.9960  19.0928 0003528 271.6971 318.7003 15.72156025  3292,6730.873,91.594,355.113,350.364,0.0
55308.0,STARLINK-5292,PAYLOAD,2023-02-06 14:00:01,15.71604719,0.0003665,69.9959,18.1528,270.0238,46.0387,-0.0075199,-0.00875248,0.0,0 STARLINK-5292,1 55308U 23010AR  23037.58334491 -.00875248  00000-0 -75199-2 0  9998,2 55308  69.9959  18.1528 0003665 270.0238  46.0387 15.71604719  1300,6732.447,91.626,356.78,351.845,0.0
55308.0,STARLINK-5292,PAYLOAD,2023-02-06 22:00:00,15.71008606,0.0003652,69.9961,17.2141,266.2671,134.7504,-0.0075441,-0.00858005,0.0,0 STARLINK-5292,1 55308U 23010AR  23037.91667824 -.00858005  00000-0 -75441-2 0  9996,2 55308  69.9961  17.2141 0003652 266.2671 134.7504 15.71008606  1307,6734.15,91.661,358.475,353.556,0.0
55308.0,STARLINK-5292,PAYLOAD,2023-02-07 00:00:00,15.70868927,0.0003543,69.9964,16.9793,266.9536,245.1935,-0.0078355,-0.00883162,0.0,0 STARLINK-5292,1 55308U 23010AR  23038.00001157 -.00883162  00000-0 -78355-2 0  9997,2 55308  69.9964  16.9793 0003543 266.9536 245.1935 15.70868927  3413,6734.549,91.669,358.8,354.028,0.0
55308.0,STARLINK-5292,PAYLOAD,2023-02-07 14:00:01,15.69944224,0.000357,69.998,15.3378,267.7344,301.0888,-0.00056272,-0.00067395,0.0,0 STARLINK-5292,1 55308U 23010AR  23038.58334491 -.00067395  00000-0 -56272-3 0  9997,2 55308  69.9980  15.3378 0003570 267.7344 301.0888 15.69944224  1307,6737.194,91.723,361.464,356.653,0.0
55308.0,STARLINK-5292,PAYLOAD,2023-02-07 16:00:01,15.69899561,0.0003563,69.9984,15.1034,265.0337,54.702,0.00015576,0.00018539,0.0,0 STARLINK-5292,1 55308U 23010AR  23038.66668981  .00018539  00000-0  15576-3 0  9996,2 55308  69.9984  15.1034 0003563 265.0337  54.7020 15.69899561  3511,6737.321,91.726,361.587,356.786,0.0
55308.0,STARLINK-5292,PAYLOAD,2023-02-07 22:00:00,15.69910034,0.0003566,69.9991,14.4005,255.5918,36.5744,0.00024305,0.00029097,0.0,0 STARLINK-5292,1 55308U 23010AR  23038.91667824  .00029097  00000-0  24305-3 0  9990,2 55308  69.9991  14.4005 0003566 255.5918  36.5744 15.69910034  1306,6737.291,91.725,361.559,356.754,0.0
55308.0,STARLINK-5292,PAYLOAD,2023-02-08 14:00:01,15.69925546,0.0003339,70.0,12.5259,268.521,190.3099,-0.00040534,-0.00048673,0.0,0 STARLINK-5292,1 55308U 23010AR  23039.58334491 -.00048673  00000-0 -40534-3 0  9990,2 55308  70.0000  12.5259 0003339 268.5210 190.3099 15.69925546  1303,6737.247,91.724,361.362,356.862,0.0
55308.0,STARLINK-5292,PAYLOAD,2023-02-08 22:00:00,15.69907481,0.0003284,70.0006,11.5891,266.8966,275.2822,0.00025329,0.00030332,0.0,0 STARLINK-5292,1 55308U 23010AR  23039.91667824  .00030332  00000-0  25329-3 0  9992,2 55308  70.0006  11.5891 0003284 266.8966 275.2822 15.69907481  3710,6737.299,91.725,361.376,356.951,0.0
55308.0,STARLINK-5292,PAYLOAD,2023-02-09 12:00:00,15.6992537,0.0003393,70.0,9.9489,275.6885,322.3232,-0.00029221,-0.00035204,0.0,0 STARLINK-5292,1 55308U 23010AR  23040.50001157 -.00035204  00000-0 -29221-3 0  9990,2 55308  70.0000   9.9489 0003393 275.6885 322.3232 15.69925370  1306,6737.248,91.724,361.398,356.827,0.0
55308.0,STARLINK-5292,PAYLOAD,2023-02-09 22:00:00,15.69884077,0.0003442,70.0005,8.7773,264.9031,167.2086,0.00083401,0.0010112,0.0,0 STARLINK-5292,1 55308U 23010AR  23040.91667824  .00101120  00000-0  83401-3 0  9993,2 55308  70.0005   8.7773 0003442 264.9031 167.2086 15.69884077  3867,6737.366,91.727,361.55,356.912,0.0
55308.0,STARLINK-5292,PAYLOAD,2023-02-10 04:00:00,15.69957891,0.0003538,70.0006,8.0745,268.3837,136.217,-0.00012428,-0.00015151,0.0,0 STARLINK-5292,1 55308U 23010AR  23041.16667824 -.00015151  00000-0 -12428-3 0  9992,2 55308  70.0006   8.0745 0003538 268.3837 136.2170 15.69957891  1300,6737.154,91.722,361.403,356.636,0.0
55308.0,STARLINK-5292,PAYLOAD,2023-02-10 18:00:00,15.69829411,0.0003789,70.0005,6.4346,255.8571,204.7001,0.001241,0.00151141,0.0,0 STARLINK-5292,1 55308U 23010AR  23041.75001157  .00151141  00000-0  12410-2 0  9996,2 55308  70.0005   6.4346 0003789 255.8571 204.7001 15.69829411  3999,6737.522,91.73,361.94,356.834,0.0
55308.0,STARLINK-5292,PAYLOAD,2023-02-10 22:00:00,15.69885629,0.0003774,70.0008,5.9663,254.7157,67.4431,0.00072354,0.00087566,0.0,0 STARLINK-5292,1 55308U 23010AR  23041.91667824  .00087566  00000-0  72354-3 0  9996,2 55308  70.0008   5.9663 0003774 254.7157  67.4431 15.69885629  4029,6737.361,91.726,361.769,356.684,0.0
55308.0,STARLINK-5292,PAYLOAD,2023-02-11 08:51:56,15.69963785,0.0003723,70.0002,4.6934,254.0768,106.0018,0.00070715,0.00085837,0.0,0 STARLINK-5292,1 55308U 23010AR  23042.36940512  .00085837  00000-0  70715-3 0  9992,2 55308  70.0002   4.6934 0003723 254.0768 106.0018 15.69963785  5285,6737.138,91.722,361.511,356.494,0.0
55308.0,STARLINK-5292,PAYLOAD,2023-02-12 00:09:28,15.69950072,0.0005032,70.0008,2.9015,285.6826,74.3814,0.00076717,0.00093196,0.0,0 STARLINK-5292,1 55308U 23010AR  23043.00657509  .00093196  00000-0  76717-3 0  9990,2 55308  70.0008   2.9015 0005032 285.6826  74.3814 15.69950072  4197,6737.177,91.723,362.432,355.652,0.0
55308.0,STARLINK-5292,PAYLOAD,2023-02-13 03:40:50,15.70479373,0.0003878,70.001,359.678,154.7111,205.4276,0.00069908,0.00086702,0.0,0 STARLINK-5292,1 55308U 23010AR  23044.15336590  .00086702  00000-0  69908-3 0  9990,2 55308  70.0010 359.6780 0003878 154.7111 205.4276 15.70479373  4371,6735.663,91.692,360.14,354.916,0.0
55308.0,STARLINK-5292,PAYLOAD,2023-02-13 14:23:15,15.69884635,0.0004192,69.9998,358.4231,275.6448,84.427,0.0011787,0.00143754,0.0,0 STARLINK-5292,1 55308U 23010AR  23044.59948767  .00143754  00000-0  11787-2 0  9995,2 55308  69.9998 358.4231 0004192 275.6448  84.4270 15.69884635  4443,6737.364,91.726,362.053,356.405,0.0
55308.0,STARLINK-5292,PAYLOAD,2023-02-14 06:00:02,15.69907817,0.0003483,70.0002,356.5938,270.7884,164.7995,0.00016771,0.00019988,0.0,0 STARLINK-5292,1 55308U 23010AR  23045.25002315  .00019988  00000-0  16771-3 0  9999,2 55308  70.0002 356.5938 0003483 270.7884 164.7995 15.69907817  4542,6737.298,91.725,361.509,356.816,0.0
55308.0,STARLINK-5292,PAYLOAD,2023-02-14 08:00:01,15.69894513,0.0003481,69.9999,356.3595,271.7451,274.614,0.00042991,0.00051737,0.0,0 STARLINK-5292,1 55308U 23010AR  23045.33334491  .00051737  00000-0  42991-3 0  9992,2 55308  69.9999 356.3595 0003481 271.7451 274.6140 15.69894513  1302,6737.336,91.726,361.546,356.856,0.0
55308.0,STARLINK-5292,PAYLOAD,2023-02-15 06:08:49,15.6991282,0.0002841,70.0005,353.7634,270.7583,89.3287,6.9568e-05,8.156e-05,0.0,0 STARLINK-5292,1 55308U 23010AR  23046.25612868  .00008156  00000-0  69568-4 0  9998,2 55308  70.0005 353.7634 0002841 270.7583  89.3287 15.69912820  4704,6737.283,91.725,361.062,357.234,0.0
55308.0,STARLINK-5292,PAYLOAD,2023-02-15 13:47:34,15.6994853,0.0003487,70.0001,352.8688,265.3779,94.7018,0.00023816,0.00028551,0.0,0 STARLINK-5292,1 55308U 23010AR  23046.57470635  .00028551  00000-0  23816-3 0  9993,2 55308  70.0001 352.8688 0003487 265.3779  94.7018 15.69948530  4757,6737.181,91.723,361.396,356.697,0.0
55308.0,STARLINK-5292,PAYLOAD,2023-02-15 21:26:20,15.69938082,0.0003199,70.0001,351.9739,265.9592,94.1238,5.6921e-05,6.641e-05,0.0,0 STARLINK-5292,1 55308U 23010AR  23046.89328945  .00006641  00000-0  56921-4 0  9994,2 55308  70.0001 351.9739 0003199 265.9592  94.1238 15.69938082  5999,6737.211,91.723,361.231,356.921,0.0
55308.0,STARLINK-5292,PAYLOAD,2023-02-15 22:58:05,15.69951767,0.0003267,70.0004,351.7946,257.7301,102.3529,0.00013233,0.00015747,0.0,0 STARLINK-5292,1 55308U 23010AR  23046.95700242  .00015747  00000-0  13233-3 0  9990,2 55308  70.0004 351.7946 0003267 257.7301 102.3529 15.69951767  4813,6737.172,91.723,361.238,356.836,0.0
